[
  {
    "OBJECT_NAME": "STARLINK-33801",
    "OBJECT_ID": "25099M",
    "EPOCH": "2025-11-10T20:30:55.805184",
    "MEAN_MOTION": 15.27624445,
    "ECCENTRICITY": 0.0001536,
    "INCLINATION": 43.0016,
    "RA_OF_ASC_NODE": 127.1988,
    "ARG_OF_PERICENTER": 272.6386,
    "MEAN_ANOMALY": 87.429,
    "EPHEMERIS_TYPE": 0,
    "CLASSIFICATION_TYPE": "U",
    "NORAD_CAT_ID": 63963,
    "ELEMENT_SET_NO": 999,
    "REV_AT_EPOCH": 2916,
    "BSTAR": 0.0011108000000000001,
    "MEAN_MOTION_DOT": 0.00030473,
    "MEAN_MOTION_DDOT": 0.0,
    "TLE_LINE1": "1 63963U 25099M   25314.85481256  .00030473  00000+0  11108-2 0  9995",
    "TLE_LINE2": "2 63963  43.0016 127.1988 0001536 272.6386  87.4290 15.27624445 29166",
    "COMMENT": "Grouped by shell and plane from TLE"
  },
  {
    "OBJECT_NAME": "STARLINK-34135",
    "OBJECT_ID": "25099N",
    "EPOCH": "2025-11-10T20:36:28.484064",
    "MEAN_MOTION": 15.27613576,
    "ECCENTRICITY": 0.0001459,
    "INCLINATION": 43.0006,
    "RA_OF_ASC_NODE": 127.23,
    "ARG_OF_PERICENTER": 272.8794,
    "MEAN_ANOMALY": 87.189,
    "EPHEMERIS_TYPE": 0,
    "CLASSIFICATION_TYPE": "U",
    "NORAD_CAT_ID": 63964,
    "ELEMENT_SET_NO": 999,
    "REV_AT_EPOCH": 2916,
    "BSTAR": 0.0012595,
    "MEAN_MOTION_DOT": 0.00034595,
    "MEAN_MOTION_DDOT": 0.0,
    "TLE_LINE1": "1 63964U 25099N   25314.85866301  .00034595  00000+0  12595-2 0  9994",
    "TLE_LINE2": "2 63964  43.0006 127.2300 0001459 272.8794  87.1890 15.27613576 29160",
    "COMMENT": "Grouped by shell and plane from TLE"
  },
  {
    "OBJECT_NAME": "STARLINK-34147",
    "OBJECT_ID": "25099P",
    "EPOCH": "2025-11-11T04:16:09.079968",
    "MEAN_MOTION": 15.27615404,
    "ECCENTRICITY": 9.9e-05,
    "INCLINATION": 43.0027,
    "RA_OF_ASC_NODE": 125.3193,
    "ARG_OF_PERICENTER": 289.8338,
    "MEAN_ANOMALY": 70.2407,
    "EPHEMERIS_TYPE": 0,
    "CLASSIFICATION_TYPE": "U",
    "NORAD_CAT_ID": 63965,
    "ELEMENT_SET_NO": 999,
    "REV_AT_EPOCH": 2921,
    "BSTAR": 0.00091598,
    "MEAN_MOTION_DOT": 0.00025056,
    "MEAN_MOTION_DDOT": 0.0,
    "TLE_LINE1": "1 63965U 25099P   25315.17788287  .00025056  00000+0  91598-3 0  9990",
    "TLE_LINE2": "2 63965  43.0027 125.3193 0000990 289.8338  70.2407 15.27615404 29219",
    "COMMENT": "Grouped by shell and plane from TLE"
  },
  {
    "OBJECT_NAME": "STARLINK-33960",
    "OBJECT_ID": "25099Q",
    "EPOCH": "2025-11-10T18:45:39.923712",
    "MEAN_MOTION": 15.27607412,
    "ECCENTRICITY": 0.0001738,
    "INCLINATION": 43.0018,
    "RA_OF_ASC_NODE": 127.5049,
    "ARG_OF_PERICENTER": 270.9659,
    "MEAN_ANOMALY": 89.0994,
    "EPHEMERIS_TYPE": 0,
    "CLASSIFICATION_TYPE": "U",
    "NORAD_CAT_ID": 63966,
    "ELEMENT_SET_NO": 999,
    "REV_AT_EPOCH": 2915,
    "BSTAR": 0.0011539,
    "MEAN_MOTION_DOT": 0.00031653,
    "MEAN_MOTION_DDOT": 0.0,
    "TLE_LINE1": "1 63966U 25099Q   25314.78171208  .00031653  00000+0  11539-2 0  9992",
    "TLE_LINE2": "2 63966  43.0018 127.5049 0001738 270.9659  89.0994 15.27607412 29154",
    "COMMENT": "Grouped by shell and plane from TLE"
  },
  {
    "OBJECT_NAME": "STARLINK-34153",
    "OBJECT_ID": "25099R",
    "EPOCH": "2025-11-10T21:44:44.771136",
    "MEAN_MOTION": 15.27594186,
    "ECCENTRICITY": 0.0001923,
    "INCLINATION": 43.0006,
    "RA_OF_ASC_NODE": 126.7183,
    "ARG_OF_PERICENTER": 293.1795,
    "MEAN_ANOMALY": 66.8854,
    "EPHEMERIS_TYPE": 0,
    "CLASSIFICATION_TYPE": "U",
    "NORAD_CAT_ID": 63967,
    "ELEMENT_SET_NO": 999,
    "REV_AT_EPOCH": 2917,
    "BSTAR": 0.0011502,
    "MEAN_MOTION_DOT": 0.00031538,
    "MEAN_MOTION_DDOT": 0.0,
    "TLE_LINE1": "1 63967U 25099R   25314.90607374  .00031538  00000+0  11502-2 0  9997",
    "TLE_LINE2": "2 63967  43.0006 126.7183 0001923 293.1795  66.8854 15.27594186 29179",
    "COMMENT": "Grouped by shell and plane from TLE"
  },
  {
    "OBJECT_NAME": "STARLINK-33963",
    "OBJECT_ID": "25099S",
    "EPOCH": "2025-11-11T04:06:56.331648",
    "MEAN_MOTION": 15.27599631,
    "ECCENTRICITY": 2.94e-05,
    "INCLINATION": 42.9996,
    "RA_OF_ASC_NODE": 125.2687,
    "ARG_OF_PERICENTER": 30.4418,
    "MEAN_ANOMALY": 329.6451,
    "EPHEMERIS_TYPE": 0,
    "CLASSIFICATION_TYPE": "U",
    "NORAD_CAT_ID": 63968,
    "ELEMENT_SET_NO": 999,
    "REV_AT_EPOCH": 2921,
    "BSTAR": 0.0012867,
    "MEAN_MOTION_DOT": 0.00035336,
    "MEAN_MOTION_DDOT": 0.0,
    "TLE_LINE1": "1 63968U 25099S   25315.17148532  .00035336  00000+0  12867-2 0  9999",
    "TLE_LINE2": "2 63968  42.9996 125.2687 0000294  30.4418 329.6451 15.27599631 29211",
    "COMMENT": "Grouped by shell and plane from TLE"
  },
  {
    "OBJECT_NAME": "STARLINK-34112",
    "OBJECT_ID": "25099T",
    "EPOCH": "2025-11-11T03:55:47.822016",
    "MEAN_MOTION": 15.27600059,
    "ECCENTRICITY": 0.0001008,
    "INCLINATION": 42.9958,
    "RA_OF_ASC_NODE": 125.2115,
    "ARG_OF_PERICENTER": 269.3365,
    "MEAN_ANOMALY": 90.7371,
    "EPHEMERIS_TYPE": 0,
    "CLASSIFICATION_TYPE": "U",
    "NORAD_CAT_ID": 63969,
    "ELEMENT_SET_NO": 999,
    "REV_AT_EPOCH": 2921,
    "BSTAR": 0.00050285,
    "MEAN_MOTION_DOT": 0.00013609,
    "MEAN_MOTION_DDOT": 0.0,
    "TLE_LINE1": "1 63969U 25099T   25315.16374794  .00013609  00000+0  50285-3 0  9996",
    "TLE_LINE2": "2 63969  42.9958 125.2115 0001008 269.3365  90.7371 15.27600059 29218",
    "COMMENT": "Grouped by shell and plane from TLE"
  },
  {
    "OBJECT_NAME": "STARLINK-34084",
    "OBJECT_ID": "25099U",
    "EPOCH": "2025-11-10T21:33:37.328544",
    "MEAN_MOTION": 15.27605411,
    "ECCENTRICITY": 0.0002275,
    "INCLINATION": 43.0024,
    "RA_OF_ASC_NODE": 126.6573,
    "ARG_OF_PERICENTER": 261.5929,
    "MEAN_ANOMALY": 98.4665,
    "EPHEMERIS_TYPE": 0,
    "CLASSIFICATION_TYPE": "U",
    "NORAD_CAT_ID": 63970,
    "ELEMENT_SET_NO": 999,
    "REV_AT_EPOCH": 2917,
    "BSTAR": 0.0011287,
    "MEAN_MOTION_DOT": 0.00030952,
    "MEAN_MOTION_DDOT": 0.0,
    "TLE_LINE1": "1 63970U 25099U   25314.89834871  .00030952  00000+0  11287-2 0  9992",
    "TLE_LINE2": "2 63970  43.0024 126.6573 0002275 261.5929  98.4665 15.27605411 29179",
    "COMMENT": "Grouped by shell and plane from TLE"
  },
  {
    "OBJECT_NAME": "STARLINK-34138",
    "OBJECT_ID": "25099V",
    "EPOCH": "2025-11-11T04:33:29.958912",
    "MEAN_MOTION": 15.27601761,
    "ECCENTRICITY": 0.0001711,
    "INCLINATION": 43.0049,
    "RA_OF_ASC_NODE": 121.9451,
    "ARG_OF_PERICENTER": 269.0359,
    "MEAN_ANOMALY": 91.0297,
    "EPHEMERIS_TYPE": 0,
    "CLASSIFICATION_TYPE": "U",
    "NORAD_CAT_ID": 63971,
    "ELEMENT_SET_NO": 999,
    "REV_AT_EPOCH": 2925,
    "BSTAR": 0.0016178000000000002,
    "MEAN_MOTION_DOT": 0.00044556,
    "MEAN_MOTION_DDOT": 0.0,
    "TLE_LINE1": "1 63971U 25099V   25315.18993008  .00044556  00000+0  16178-2 0  9993",
    "TLE_LINE2": "2 63971  43.0049 121.9451 0001711 269.0359  91.0297 15.27601761 29257",
    "COMMENT": "Grouped by shell and plane from TLE"
  },
  {
    "OBJECT_NAME": "STARLINK-34115",
    "OBJECT_ID": "25099W",
    "EPOCH": "2025-11-11T04:18:42.423552",
    "MEAN_MOTION": 15.27599967,
    "ECCENTRICITY": 0.000133,
    "INCLINATION": 43.0008,
    "RA_OF_ASC_NODE": 121.8721,
    "ARG_OF_PERICENTER": 273.3959,
    "MEAN_ANOMALY": 86.674,
    "EPHEMERIS_TYPE": 0,
    "CLASSIFICATION_TYPE": "U",
    "NORAD_CAT_ID": 63972,
    "ELEMENT_SET_NO": 999,
    "REV_AT_EPOCH": 2925,
    "BSTAR": 0.001802,
    "MEAN_MOTION_DOT": 0.00049691,
    "MEAN_MOTION_DDOT": 0.0,
    "TLE_LINE1": "1 63972U 25099W   25315.17965768  .00049691  00000+0  18020-2 0  9998",
    "TLE_LINE2": "2 63972  43.0008 121.8721 0001330 273.3959  86.6740 15.27599967 29250",
    "COMMENT": "Grouped by shell and plane from TLE"
  },
  {
    "OBJECT_NAME": "STARLINK-34028",
    "OBJECT_ID": "25099X",
    "EPOCH": "2025-11-10T18:02:10.017312",
    "MEAN_MOTION": 15.27604999,
    "ECCENTRICITY": 0.0001534,
    "INCLINATION": 43.0019,
    "RA_OF_ASC_NODE": 124.6703,
    "ARG_OF_PERICENTER": 266.8457,
    "MEAN_ANOMALY": 93.2219,
    "EPHEMERIS_TYPE": 0,
    "CLASSIFICATION_TYPE": "U",
    "NORAD_CAT_ID": 63973,
    "ELEMENT_SET_NO": 999,
    "REV_AT_EPOCH": 2918,
    "BSTAR": 0.0019648,
    "MEAN_MOTION_DOT": 0.00054245,
    "MEAN_MOTION_DDOT": 0.0,
    "TLE_LINE1": "1 63973U 25099X   25314.75150483  .00054245  00000+0  19648-2 0  9990",
    "TLE_LINE2": "2 63973  43.0019 124.6703 0001534 266.8457  93.2219 15.27604999 29189",
    "COMMENT": "Grouped by shell and plane from TLE"
  },
  {
    "OBJECT_NAME": "STARLINK-33942",
    "OBJECT_ID": "25099Y",
    "EPOCH": "2025-11-10T21:04:55.673760",
    "MEAN_MOTION": 15.27568354,
    "ECCENTRICITY": 0.0001904,
    "INCLINATION": 43.0015,
    "RA_OF_ASC_NODE": 123.902,
    "ARG_OF_PERICENTER": 281.0593,
    "MEAN_ANOMALY": 79.0045,
    "EPHEMERIS_TYPE": 0,
    "CLASSIFICATION_TYPE": "U",
    "NORAD_CAT_ID": 63974,
    "ELEMENT_SET_NO": 999,
    "REV_AT_EPOCH": 2920,
    "BSTAR": 0.0011842,
    "MEAN_MOTION_DOT": 0.00032458,
    "MEAN_MOTION_DDOT": 0.0,
    "TLE_LINE1": "1 63974U 25099Y   25314.87842215  .00032458  00000+0  11842-2 0  9995",
    "TLE_LINE2": "2 63974  43.0015 123.9020 0001904 281.0593  79.0045 15.27568354 29207",
    "COMMENT": "Grouped by shell and plane from TLE"
  },
  {
    "OBJECT_NAME": "STARLINK-34139",
    "OBJECT_ID": "25099Z",
    "EPOCH": "2025-11-10T20:59:22.371936",
    "MEAN_MOTION": 15.27614158,
    "ECCENTRICITY": 0.0001774,
    "INCLINATION": 43.002,
    "RA_OF_ASC_NODE": 123.8738,
    "ARG_OF_PERICENTER": 271.9723,
    "MEAN_ANOMALY": 88.0926,
    "EPHEMERIS_TYPE": 0,
    "CLASSIFICATION_TYPE": "U",
    "NORAD_CAT_ID": 63975,
    "ELEMENT_SET_NO": 999,
    "REV_AT_EPOCH": 2911,
    "BSTAR": 0.0016261000000000001,
    "MEAN_MOTION_DOT": 0.00044804,
    "MEAN_MOTION_DDOT": 0.0,
    "TLE_LINE1": "1 63975U 25099Z   25314.87456449  .00044804  00000+0  16261-2 0  9994",
    "TLE_LINE2": "2 63975  43.0020 123.8738 0001774 271.9723  88.0926 15.27614158 29119",
    "COMMENT": "Grouped by shell and plane from TLE"
  }
]